OTTER                   
1 62623U 25009Q   26068.72300813  .00012198  00000+0  45151-3 0  9990
2 62623  97.4065 151.3812 0003573 310.7710  49.3219 15.27809545 63722
STARLINK-35941          
1 66583U 25268AC  26068.16753843  .00033482  00000+0  12194-2 0  9998
2 66583  43.0043 349.6827 0001704 259.9625 100.1035 15.27614759 17884
